NORAD_CAT_ID,OBJECT_NAME,OBJECT_TYPE,EPOCH,MEAN_MOTION,ECCENTRICITY,INCLINATION,RA_OF_ASC_NODE,ARG_OF_PERICENTER,MEAN_ANOMALY,BSTAR,MEAN_MOTION_DOT,MEAN_MOTION_DDOT,TLE_LINE0,TLE_LINE1,TLE_LINE2,SEMIMAJOR_AXIS,PERIOD,APOGEE,PERIGEE,DECAYED
50201.0,STARLINK-3255,PAYLOAD,2024-07-21 05:59:21,15.08854614,0.0001239,53.2188,36.6601,92.692,267.4214,0.00031627,4.751e-05,0.0,0 STARLINK-3255,1 50201U 21125AX  24203.24955686  .00004751  00000-0  31627-3 0  9994,2 50201  53.2188  36.6601 0001239  92.6920 267.4214 15.08854614146214,6917.836,95.437,540.558,538.844,0.0
50201.0,STARLINK-3255,PAYLOAD,2024-07-21 20:17:50,15.08837425,0.0001188,53.2171,33.9799,73.749,286.3632,4.6153e-05,4.47e-06,0.0,0 STARLINK-3255,1 50201U 21125AX  24203.84572583  .00000447  00000-0  46153-4 0  9990,2 50201  53.2171  33.9799 0001188  73.7490 286.3632 15.08837425146304,6917.888,95.438,540.575,538.931,0.0
50201.0,STARLINK-3255,PAYLOAD,2024-07-22 21:44:01,15.08845134,0.0001304,53.2172,29.2218,72.8551,287.2584,0.00035954,5.44e-05,0.0,0 STARLINK-3255,1 50201U 21125AX  24204.90556777  .00005440  00000-0  35954-3 0  9999,2 50201  53.2172  29.2218 0001304  72.8551 287.2584 15.08845134146949,6917.865,95.437,540.632,538.828,0.0
50201.0,STARLINK-3255,PAYLOAD,2024-07-23 12:02:29,15.08830988,0.0001066,53.2165,26.546,91.9185,268.1929,0.00011731,1.579e-05,0.0,0 STARLINK-3255,1 50201U 21125AX  24205.50173377  .00001579  00000-0  11731-3 0  9993,2 50201  53.2165  26.5460 0001066  91.9185 268.1929 15.08830988146559,6917.908,95.438,540.51,539.035,0.0
50201.0,STARLINK-3255,PAYLOAD,2024-07-23 21:34:48,15.08843439,0.0001266,53.2168,24.7653,70.2585,289.8544,0.000243,3.582e-05,0.0,0 STARLINK-3255,1 50201U 21125AX  24205.89917132  .00003582  00000-0  24300-3 0  9992,2 50201  53.2168  24.7653 0001266  70.2585 289.8544 15.08843439147090,6917.87,95.437,540.611,538.859,0.0
50201.0,STARLINK-3255,PAYLOAD,2024-07-24 11:53:16,15.08842747,0.0001122,53.2131,22.0861,84.5195,275.5925,0.00030278,4.535e-05,0.0,0 STARLINK-3255,1 50201U 21125AX  24206.49533093  .00004535  00000-0  30278-3 0  9999,2 50201  53.2131  22.0861 0001122  84.5195 275.5925 15.08842747147184,6917.872,95.437,540.513,538.961,0.0
50201.0,STARLINK-3255,PAYLOAD,2024-07-24 21:25:35,15.08842483,0.0001119,53.2146,20.3042,71.8354,288.276,0.00025138,3.715e-05,0.0,0 STARLINK-3255,1 50201U 21125AX  24206.89277187  .00003715  00000-0  25138-3 0  9990,2 50201  53.2146  20.3042 0001119  71.8354 288.2760 15.08842483147246,6917.873,95.437,540.512,538.964,0.0
50201.0,STARLINK-3255,PAYLOAD,2024-07-25 11:44:03,15.08844576,0.0001208,53.2152,17.626,84.0041,276.1089,0.00016524,2.343e-05,0.0,0 STARLINK-3255,1 50201U 21125AX  24207.48893072  .00002343  00000-0  16524-3 0  9998,2 50201  53.2152  17.6260 0001208  84.0041 276.1089 15.08844576147337,6917.866,95.437,540.567,538.896,0.0
50201.0,STARLINK-3255,PAYLOAD,2024-07-25 18:05:36,15.08842919,0.0001203,53.2155,16.435,92.3605,267.7524,0.00011363,1.521e-05,0.0,0 STARLINK-3255,1 50201U 21125AX  24207.75389040  .00001521  00000-0  11363-3 0  9996,2 50201  53.2155  16.4350 0001203  92.3605 267.7524 15.08842919146899,6917.871,95.437,540.569,538.904,0.0
50201.0,STARLINK-3255,PAYLOAD,2024-07-26 19:31:45,15.08846302,0.0001156,53.2168,11.6772,90.7457,269.3667,0.00011369,1.522e-05,0.0,0 STARLINK-3255,1 50201U 21125AX  24208.81372558  .00001522  00000-0  11369-3 0  9997,2 50201  53.2168  11.6772 0001156  90.7457 269.3667 15.08846302147057,6917.861,95.437,540.526,538.926,0.0
50201.0,STARLINK-3255,PAYLOAD,2024-07-27 03:28:40,15.08860279,0.0001025,53.2198,10.1911,90.7894,269.3216,0.0003267,4.918e-05,0.0,0 STARLINK-3255,1 50201U 21125AX  24209.14491587  .00004918  00000-0  32670-3 0  9998,2 50201  53.2198  10.1911 0001025  90.7894 269.3216 15.08860279147104,6917.818,95.436,540.392,538.974,0.0
50201.0,STARLINK-3255,PAYLOAD,2024-07-27 11:25:37,15.08833926,0.0001882,53.2163,8.7043,86.959,273.1618,-4.1952e-05,-9.56e-06,0.0,0 STARLINK-3255,1 50201U 21125AX  24209.47613115 -.00000956  00000-0 -41952-4 0  9991,2 50201  53.2163   8.7043 0001882  86.9590 273.1618 15.08833926147159,6917.899,95.438,541.066,538.462,0.0
50201.0,STARLINK-3255,PAYLOAD,2024-07-27 19:22:33,15.08829071,0.0001643,53.2164,7.218,87.476,272.642,-0.00010641,-1.981e-05,0.0,0 STARLINK-3255,1 50201U 21125AX  24209.80733471 -.00001981  00000-0 -10641-3 0  9995,2 50201  53.2164   7.2180 0001643  87.4760 272.6420 15.08829071147685,6917.914,95.438,540.915,538.642,0.0
50201.0,STARLINK-3255,PAYLOAD,2024-07-28 03:19:28,15.08842789,0.000105,53.2169,5.7325,83.3774,276.7338,5.3858e-05,5.7e-06,0.0,0 STARLINK-3255,1 50201U 21125AX  24210.13852773  .00000570  00000-0  53858-4 0  9999,2 50201  53.2169   5.7325 0001050  83.3774 276.7338 15.08842789147253,6917.872,95.437,540.463,539.01,0.0
50201.0,STARLINK-3255,PAYLOAD,2024-07-28 20:48:43,15.08843137,0.0001245,53.2194,2.4577,70.2804,289.8323,-3.1801e-05,-7.94e-06,0.0,0 STARLINK-3255,1 50201U 21125AX  24210.86717046 -.00000794  00000-0 -31801-4 0  9996,2 50201  53.2194   2.4577 0001245  70.2804 289.8323 15.08843137147841,6917.871,95.437,540.597,538.875,0.0
50201.0,STARLINK-3255,PAYLOAD,2024-07-29 03:10:15,15.08849129,0.0001229,53.2192,1.27,78.8836,281.2295,0.00010678,1.412e-05,0.0,0 STARLINK-3255,1 50201U 21125AX  24211.13212765  .00001412  00000-0  10678-3 0  9999,2 50201  53.2192   1.2700 0001229  78.8836 281.2295 15.08849129147880,6917.852,95.437,540.568,538.867,0.0
50201.0,STARLINK-3255,PAYLOAD,2024-07-29 17:28:44,15.08840635,0.0001335,53.2186,358.5943,81.9726,278.1418,0.0002054,2.983e-05,0.0,0 STARLINK-3255,1 50201U 21125AX  24211.72829441  .00002983  00000-0  20540-3 0  9992,2 50201  53.2186 358.5943 0001335  81.9726 278.1418 15.08840635147493,6917.878,95.438,540.667,538.82,0.0
50201.0,STARLINK-3255,PAYLOAD,2024-07-30 03:01:02,15.08853659,0.0001441,53.218,356.8106,78.8672,281.2482,0.00034488,5.207e-05,0.0,0 STARLINK-3255,1 50201U 21125AX  24212.12572890  .00005207  00000-0  34488-3 0  9998,2 50201  53.2180 356.8106 0001441  78.8672 281.2482 15.08853659147555,6917.839,95.437,540.7,538.707,0.0
50201.0,STARLINK-3255,PAYLOAD,2024-07-31 13:59:32,15.08835917,0.0002107,53.2105,350.268,93.0904,267.0329,1.3643e-05,-7.1e-07,0.0,0 STARLINK-3255,1 50201U 21125AX  24213.58301928 -.00000071  00000-0  13643-4 0  9997,2 50201  53.2105 350.2680 0002107  93.0904 267.0329 15.08835917148251,6917.893,95.438,541.215,538.3,0.0
50201.0,STARLINK-3255,PAYLOAD,2024-07-31 18:45:41,15.08839936,0.0001532,53.2198,349.3717,107.6922,252.4237,7.6561e-06,-1.66e-06,0.0,0 STARLINK-3255,1 50201U 21125AX  24213.78173530 -.00000166  00000-0  76561-5 0  9999,2 50201  53.2198 349.3717 0001532 107.6922 252.4237 15.08839936147807,6917.881,95.438,540.805,538.686,0.0
50201.0,STARLINK-3255,PAYLOAD,2024-08-01 12:14:55,15.08862827,0.0001489,53.2189,346.1027,100.4605,259.6555,-0.0002101,-3.632e-05,0.0,0 STARLINK-3255,1 50201U 21125AX  24214.51036082 -.00003632  00000-0 -21010-3 0  9990,2 50201  53.2189 346.1027 0001489 100.4605 259.6555 15.08862827147915,6917.811,95.436,540.706,538.646,0.0
50201.0,STARLINK-3255,PAYLOAD,2024-08-01 18:36:28,15.08854547,0.0001566,53.2183,344.9131,106.7307,253.3857,0.00063561,9.846e-05,0.0,0 STARLINK-3255,1 50201U 21125AX  24214.77533224  .00009846  00000-0  63561-3 0  9996,2 50201  53.2183 344.9131 0001566 106.7307 253.3857 15.08854547147955,6917.836,95.437,540.784,538.618,0.0
50201.0,STARLINK-3255,PAYLOAD,2024-08-02 13:41:06,15.08825833,0.0001428,53.2179,341.3447,62.1438,297.9698,-0.00028044,-4.747e-05,0.0,0 STARLINK-3255,1 50201U 21125AX  24215.57021933 -.00004747  00000-0 -28044-3 0  9998,2 50201  53.2179 341.3447 0001428  62.1438 297.9698 15.08825833148075,6917.924,95.438,540.777,538.801,0.0
50201.0,STARLINK-3255,PAYLOAD,2024-08-02 15:16:30,15.0882764,0.0001396,53.2182,341.0477,76.4322,283.6825,-0.00017959,-3.144e-05,0.0,0 STARLINK-3255,1 50201U 21125AX  24215.63645910 -.00003144  00000-0 -17959-3 0  9995,2 50201  53.2182 341.0477 0001396  76.4322 283.6825 15.08827640148569,6917.918,95.438,540.749,538.817,0.0
50201.0,STARLINK-3255,PAYLOAD,2024-08-03 00:48:48,15.08843838,0.0001535,53.2183,339.2639,76.3411,283.7752,0.00094641,0.00014808,0.0,0 STARLINK-3255,1 50201U 21125AX  24216.03390015  .00014808  00000-0  94641-3 0  9993,2 50201  53.2183 339.2639 0001535  76.3411 283.7752 15.08843838148143,6917.869,95.437,540.796,538.672,0.0
50201.0,STARLINK-3255,PAYLOAD,2024-08-03 13:31:54,15.08839796,0.0001679,53.2189,336.8928,93.4404,266.678,0.00053389,8.219e-05,0.0,0 STARLINK-3255,1 50201U 21125AX  24216.56382368  .00008219  00000-0  53389-3 0  9996,2 50201  53.2189 336.8928 0001679  93.4404 266.6780 15.08839796148222,6917.881,95.438,540.908,538.585,0.0
50201.0,STARLINK-3255,PAYLOAD,2024-08-03 15:07:17,15.08842735,0.000167,53.2183,336.5954,93.9033,266.215,0.00065637,0.00010174,0.0,0 STARLINK-3255,1 50201U 21125AX  24216.63006320  .00010174  00000-0  65637-3 0  9997,2 50201  53.2183 336.5954 0001670  93.9033 266.2150 15.08842735148714,6917.872,95.437,540.892,538.582,0.0
50201.0,STARLINK-3255,PAYLOAD,2024-08-04 14:58:04,15.08849515,0.0001492,53.2174,332.1301,79.5533,280.5627,0.00032126,4.83e-05,0.0,0 STARLINK-3255,1 50201U 21125AX  24217.62366031  .00004830  00000-0  32126-3 0  9994,2 50201  53.2174 332.1301 0001492  79.5533 280.5627 15.08849515148866,6917.851,95.437,540.748,538.684,0.0
50201.0,STARLINK-3255,PAYLOAD,2024-08-04 18:08:50,15.08853637,0.000148,53.2174,331.5341,73.8905,286.225,0.00042845,6.54e-05,0.0,0 STARLINK-3255,1 50201U 21125AX  24217.75613852  .00006540  00000-0  42845-3 0  9993,2 50201  53.2174 331.5341 0001480  73.8905 286.2250 15.08853637148405,6917.839,95.437,540.728,538.68,0.0
50201.0,STARLINK-3255,PAYLOAD,2024-08-05 00:30:22,15.08875306,0.0001625,53.2184,330.3474,75.5306,284.5866,0.0008077,0.00012602,0.0,0 STARLINK-3255,1 50201U 21125AX  24218.02108865  .00012602  00000-0  80770-3 0  9992,2 50201  53.2184 330.3474 0001625  75.5306 284.5866 15.08875306148440,6917.772,95.435,540.762,538.513,0.0
